API VERSION: 1.2
API SOURCE: NASA/JPL Horizons API



*******************************************************************************
Ephemeris / API_USER Wed Apr 15 12:08:26 2026 Pasadena, USA      / Horizons
*******************************************************************************
Target body name: Mercury (199)                   {source: DE441}
Center body name: Sun (10)                        {source: DE441}
Center-site name: BODY CENTER
*******************************************************************************
Start time      : A.D. 2025-Mar-22 18:55:00.0000 TDB
Stop  time      : A.D. 2025-Mar-24 18:55:00.0000 TDB
Step-size       : 60 minutes
*******************************************************************************
Center geodetic : 0.0, 0.0, 0.0                   {E-lon(deg),Lat(deg),Alt(km)}
Center cylindric: 0.0, 0.0, 0.0                   {E-lon(deg),Dxy(km),Dz(km)}
Center radii    : 695700.0, 695700.0, 695700.0 km {Equator_a, b, pole_c}
Output units    : AU-D
Calendar mode   : Mixed Julian/Gregorian
Output type     : GEOMETRIC cartesian states
Output format   : 3 (position, velocity, LT, range, range-rate)
Reference frame : Ecliptic of J2000.0
*******************************************************************************
            JDTDB,            Calendar Date (TDB),                      X,                      Y,                      Z,                     VX,                     VY,                     VZ,                     LT,                     RG,                     RR,
**************************************************************************************************************************************************************************************************************************************************************************
$$SOE
2460757.288194444, A.D. 2025-Mar-22 18:55:00.0000, -3.792340398988396E-01,  2.691341158948118E-02,  3.698317669636809E-02, -7.841331914048648E-03, -2.685613036074178E-02, -1.475515336609349E-03,  2.206146279324728E-03,  3.819823871593222E-01,  5.749847949206259E-03,
2460757.329861111, A.D. 2025-Mar-22 19:55:00.0000, -3.795590148779873E-01,  2.579428391555542E-02,  3.692152664664932E-02, -7.757481396033787E-03, -2.686195493890717E-02, -1.483682219249379E-03,  2.207529659242869E-03,  3.822219119670976E-01,  5.747334789083978E-03,
2460757.371527778, A.D. 2025-Mar-22 20:55:00.0000, -3.798804978784269E-01,  2.467491892566246E-02,  3.685953691383560E-02, -7.673717031900697E-03, -2.686752167852829E-02, -1.491820128746581E-03,  2.208912428585193E-03,  3.824613310569474E-01,  5.744773523454452E-03,
2460757.413194444, A.D. 2025-Mar-22 21:55:00.0000, -3.801984925018422E-01,  2.355532734416514E-02,  3.679720870469089E-02, -7.590039393732585E-03, -2.687283148703040E-02, -1.499929086784423E-03,  2.210294575800283E-03,  3.827006424288059E-01,  5.742164360085446E-03,
2460757.454861111, A.D. 2025-Mar-22 22:55:00.0000, -3.805130023736323E-01,  2.243551985764793E-02,  3.673454322506710E-02, -7.506449047765611E-03, -2.687788527034572E-02, -1.508009115460646E-03,  2.211676089386656E-03,  3.829398440912529E-01,  5.739507506187136E-03,
2460757.496527778, A.D. 2025-Mar-22 23:55:00.0000, -3.808240311426675E-01,  2.131550711497965E-02,  3.667154167988679E-02, -7.422946554427318E-03, -2.688268393289053E-02, -1.516060237281882E-03,  2.213056957892623E-03,  3.831789340614902E-01,  5.736803168409175E-03,
2460757.538194444, A.D. 2025-Mar-23 00:55:00.0000, -3.811315824810494E-01,  2.019529972737706E-02,  3.660820527312637E-02, -7.339532468374932E-03, -2.688722837754270E-02, -1.524082475158293E-03,  2.214437169916160E-03,  3.834179103653179E-01,  5.734051552837859E-03,
2460757.579861111, A.D. 2025-Mar-23 01:55:00.0000, -3.814356600838710E-01,  1.907490826846946E-02,  3.654453520779929E-02, -7.256207338533602E-03, -2.689151950561959E-02, -1.532075852398268E-03,  2.215816714104766E-03,  3.836567710371120E-01,  5.731252864993373E-03,
2460757.621527778, A.D. 2025-Mar-23 02:55:00.0000, -3.817362676689777E-01,  1.795434327436414E-02,  3.648053268593968E-02, -7.172971708134507E-03, -2.689555821685633E-02, -1.540040392703149E-03,  2.217195579155330E-03,  3.838955141197993E-01,  5.728407309827072E-03,
2460757.663194444, A.D. 2025-Mar-23 03:55:00.0000, -3.820334089767322E-01,  1.683361524371275E-02,  3.641619890858595E-02, -7.089826114752863E-03, -2.689934540938447E-02, -1.547976120161993E-03,  2.218573753813995E-03,  3.841341376648347E-01,  5.725515091718878E-03,
2460757.704861111, A.D. 2025-Mar-23 04:55:00.0000, -3.823270877697788E-01,  1.571273463777857E-02,  3.635153507576488E-02, -7.006771090345826E-03, -2.690288197971103E-02, -1.555883059246403E-03,  2.219951226876016E-03,  3.843726397321770E-01,  5.722576414474705E-03,
2460757.746527778, A.D. 2025-Mar-23 05:55:00.0000, -3.826173078328102E-01,  1.459171188050466E-02,  3.628654238647568E-02, -6.923807161290303E-03, -2.690616882269790E-02, -1.563761234805344E-03,  2.221327987185625E-03,  3.846110183902648E-01,  5.719591481324010E-03,
2460757.788194444, A.D. 2025-Mar-23 06:55:00.0000, -3.829040729723359E-01,  1.347055735858274E-02,  3.622122203867439E-02, -6.840934848420600E-03, -2.690920683154160E-02, -1.571610672060076E-03,  2.222704023635891E-03,  3.848492717159924E-01,  5.716560494917340E-03,
2460757.829861111, A.D. 2025-Mar-23 07:55:00.0000, -3.831873870164522E-01,  1.234928142152308E-02,  3.615557522925856E-02, -6.758154667066028E-03, -2.691199689775343E-02, -1.579431396599038E-03,  2.224079325168579E-03,  3.850873977946862E-01,  5.713483657324012E-03,
2460757.871527778, A.D. 2025-Mar-23 08:55:00.0000, -3.834672538146131E-01,  1.122789438172506E-02,  3.608960315405193E-02, -6.675467127088338E-03, -2.691453991113994E-02, -1.587223434372878E-03,  2.225453880774014E-03,  3.853253947200794E-01,  5.710361170029828E-03,
2460757.913194444, A.D. 2025-Mar-23 09:55:00.0000, -3.837436772374038E-01,  1.010640651454869E-02,  3.602330700778955E-02, -6.592872732919058E-03, -2.691683675978380E-02, -1.594986811689391E-03,  2.226827679490934E-03,  3.855632605942889E-01,  5.707193233934852E-03,
2460757.954861111, A.D. 2025-Mar-23 10:55:00.0000, -3.840166611763150E-01,  8.984828058386744E-03,  3.595668798410293E-02, -6.510371983596726E-03, -2.691888833002500E-02, -1.602721555208629E-03,  2.228200710406354E-03,  3.858009935277897E-01,  5.703980049351284E-03,
2460757.996527778, A.D. 2025-Mar-23 11:55:00.0000, -3.842862095435189E-01,  7.863169214737786E-03,  3.588974727550551E-02, -6.427965372803973E-03, -2.692069550644237E-02, -1.610427691937962E-03,  2.229572962655423E-03,  3.860385916393911E-01,  5.700721816001353E-03,
2460758.038194444, A.D. 2025-Mar-23 12:55:00.0000, -3.845523262716468E-01,  6.741440148279944E-03,  3.582248607337826E-02, -6.345653388904520E-03, -2.692225917183550E-02, -1.618105249227215E-03,  2.230944425421280E-03,  3.862760530562118E-01,  5.697418733015320E-03,
2460758.079861111, A.D. 2025-Mar-23 13:55:00.0000, -3.848150153135685E-01,  5.619650986945396E-03,  3.575490556795553E-02, -6.263436514980024E-03, -2.692358020720701E-02, -1.625754254763828E-03,  2.232315087934913E-03,  3.865133759136551E-01,  5.694070998929514E-03,
2460758.121527778, A.D. 2025-Mar-23 14:55:00.0000, -3.850742806421728E-01,  4.497811821995641E-03,  3.568700694831105E-02, -6.181315228866805E-03, -2.692465949174505E-02, -1.633374736568069E-03,  2.233684939475017E-03,  3.867505583553845E-01,  5.690678811684440E-03,
2460758.163194444, A.D. 2025-Mar-23 15:55:00.0000, -3.853301262501492E-01,  3.375932708097408E-03,  3.561879140234422E-02, -6.099290003192467E-03, -2.692549790280627E-02, -1.640966722988286E-03,  2.235053969367844E-03,  3.869875985332983E-01,  5.687242368622960E-03,
2460758.204861111, A.D. 2025-Mar-23 16:55:00.0000, -3.855825561497730E-01,  2.254023663399371E-03,  3.555026011676651E-02, -6.017361305412364E-03, -2.692609631589903E-02, -1.648530242696174E-03,  2.236422166987072E-03,  3.872244946075051E-01,  5.683761866488507E-03,
2460758.246527778, A.D. 2025-Mar-23 17:55:00.0000, -3.858315743726889E-01,  1.132094669609468E-03,  3.548141427708804E-02, -5.935529597845960E-03, -2.692645560466699E-02, -1.656065324682118E-03,  2.237789521753643E-03,  3.874612447462986E-01,  5.680237501423396E-03,
2460758.288194444, A.D. 2025-Mar-23 18:55:00.0000, -3.860771849696991E-01,  1.015567207293466E-05,  3.541225506760449E-02, -5.853795337713031E-03, -2.692657664087299E-02, -1.663571998250548E-03,  2.239156023135636E-03,  3.876978471261325E-01,  5.676669468967155E-03,
2460758.329861111, A.D. 2025-Mar-23 19:55:00.0000, -3.863193920105505E-01, -1.111783420148956E-03,  3.534278367138403E-02, -5.772158977169778E-03, -2.692646029438327E-02, -1.671050293015334E-03,  2.240521660648107E-03,  3.879342999315954E-01,  5.673057964054955E-03,
2460758.371527778, A.D. 2025-Mar-23 20:55:00.0000, -3.865581995837256E-01, -2.233712734199585E-03,  3.527300127025454E-02, -5.690620963344765E-03, -2.692610743315202E-02, -1.678500238895217E-03,  2.241886423852952E-03,  3.881706013553856E-01,  5.669403181016067E-03,
2460758.413194444, A.D. 2025-Mar-23 21:55:00.0000, -3.867936117962324E-01, -3.355622433347040E-03,  3.520290904479104E-02, -5.609181738374748E-03, -2.692551892320619E-02, -1.685921866109310E-03,  2.243250302358759E-03,  3.884067495982859E-01,  5.665705313572389E-03,
2460758.454861111, A.D. 2025-Mar-23 22:55:00.0000, -3.870256327733984E-01, -4.477502716903383E-03,  3.513250817430322E-02, -5.527841739440364E-03, -2.692469562863071E-02, -1.693315205172594E-03,  2.244613285820660E-03,  3.886427428691379E-01,  5.661964554837037E-03,
2460758.496527778, A.D. 2025-Mar-23 23:55:00.0000, -3.872542666586643E-01, -5.599343820143543E-03,  3.506179983682324E-02, -5.446601398801683E-03, -2.692363841155387E-02, -1.700680286891465E-03,  2.245975363940188E-03,  3.888785793848171E-01,  5.658181097312974E-03,
